KUIPER-00589            
1 69767U 26151E   26200.28152675  .00008000  00000+0  22504-3 0  9999
2 69767  51.8764 160.6255 0005251 153.6098 206.5157 15.37402481  2641
KUIPER-00598            
1 69768U 26151F   26200.25002315  .00017310  00000+0  52233-3 0  9998
2 69768  51.8646 161.0217 0008416 176.5077 244.4944 15.34342787  3185
KUIPER-00604            
1 69769U 26151G   26200.27225187  .00011007  00000+0  29691-3 0  9994
2 69769  51.8803 160.5640 0002669 117.4269 242.6990 15.38302919  2644
KUIPER-00609            
1 69770U 26151H   26200.26769782  .00007683  00000+0  20783-3 0  9997
2 69770  51.8808 160.5336 0001266  60.8220 299.2894 15.38692887  2640
KUIPER-00611            
1 69771U 26151J   26200.26990513  .00006799  00000+0  18619-3 0  9998
2 69771  51.8812 160.5443 0001615 111.8782 248.2377 15.38507944  2642
KUIPER-00612            
1 69772U 26151K   26200.27553254  .00011312  00000+0  30775-3 0  9991
2 69772  51.8796 160.5871 0003612 128.9716 231.1593 15.38005424  2641
KUIPER-00614            
1 69773U 26151L   26200.27321132  .00010121  00000+0  27468-3 0  9992
2 69773  51.8809 160.5678 0002678 135.0270 225.0934 15.38209464  2648
KUIPER-00615            
1 69774U 26151M   26200.28341435  .00008390  00000+0  23638-3 0  9992
2 69774  51.8784 160.6376 0006030 161.0575 199.0637 15.37284787  2640
KUIPER-00616            
1 69775U 26151N   26200.27127579  .00013244  00000+0  35408-3 0  9995
2 69775  51.8789 160.5600 0002951 135.6444 224.4780 15.38386622  2649
KUIPER-00617            
1 69776U 26151P   26200.27703572  .00010473  00000+0  28718-3 0  9996
2 69776  51.8804 160.5953 0003942 148.3664 211.7561 15.37847087  2647
KUIPER-00619            
1 69777U 26151Q   26200.26877199  .00009543  00000+0  25633-3 0  9992
2 69777  51.8811 160.5397 0001749  84.0608 276.0578 15.38604927  2642
KUIPER-00621            
1 69778U 26151R   26200.27131013  .00007434  00000+0  20390-3 0  9994
2 69778  51.8796 160.5599 0003334 139.3055 220.8182 15.38312623  2648
KUIPER-00622            
1 69779U 26151S   26200.28589181  .00011304  00000+0  31771-3 0  9995
2 69779  51.8742 160.6526 0006655 160.4946 199.6296 15.36979546  2644
KUIPER-00623            
1 69780U 26151T   26198.26556190  .00133416  00000+0  34980-2 0  9998
2 69780  51.8777 170.3650 0006129 146.6000 213.5375 15.37672053  2337
KUIPER-00626            
1 69781U 26151U   26200.16976289  .00005691  00000+0  17632-3 0  9996
2 69781  51.8729 161.3712 0010726 179.1743 180.9262 15.34917480  2624
KUIPER-00627            
1 69782U 26151V   26200.23724790 -.00068435  00000+0 -20283-2 0  9995
2 69782  51.8694 161.0688 0009515 187.3495 172.7353 15.34383700  2637
